SWAS                    
1 25560U 98071A   26068.53487068  .00004636  00000+0  29986-3 0  9991
2 25560  69.8952 124.3662 0004099  14.3215 345.8065 15.08888192482231
STARLINK-3701           
1 52095U 22029H   26068.33473350  .00014895  00000+0  95089-3 0  9996
2 52095  53.2166  90.7152 0001333  75.8541 284.2599 15.08881034220607
